{
    "links": {
        "self": "http://www.neowsapp.com/rest/v1/neo/3757426?api_key=iIulBulltgU6a56xZRHN4H3l9WmuAYTsLGpBGhQ2"
    },
    "id": "3757426",
    "neo_reference_id": "3757426",
    "name": "(2016 ND56)",
    "designation": "2016 ND56",
    "nasa_jpl_url": "http://ssd.jpl.nasa.gov/sbdb.cgi?sstr=3757426",
    "absolute_magnitude_h": 23.5,
    "estimated_diameter": {
        "kilometers": {
            "estimated_diameter_min": 0.0530340723,
            "estimated_diameter_max": 0.1185877909
        },
        "meters": {
            "estimated_diameter_min": 53.0340723319,
            "estimated_diameter_max": 118.5877908577
        },
        "miles": {
            "estimated_diameter_min": 0.0329538346,
            "estimated_diameter_max": 0.0736870142
        },
        "feet": {
            "estimated_diameter_min": 173.9963058693,
            "estimated_diameter_max": 389.0675677576
        }
    },
    "is_potentially_hazardous_asteroid": false,
    "close_approach_data": [
        {
            "close_approach_date": "2016-07-24",
            "close_approach_date_full": "2016-Jul-24 22:58",
            "epoch_date_close_approach": 1469401080000,
            "relative_velocity": {
                "kilometers_per_second": "4.2427365419",
                "kilometers_per_hour": "15273.8515507765",
                "miles_per_hour": "9490.5773705367"
            },
            "miss_distance": {
                "astronomical": "0.2242538557",
                "lunar": "87.2347498673",
                "kilometers": "33547899.152007359",
                "miles": "20845697.9052011942"
            },
            "orbiting_body": "Earth"
        }
    ],
    "orbital_data": {
        "orbit_id": "2",
        "orbit_determination_date": "2017-04-06 08:24:52",
        "first_observation_date": "2016-07-13",
        "last_observation_date": "2016-07-15",
        "data_arc_in_days": 2,
        "observations_used": 10,
        "orbit_uncertainty": "9",
        "minimum_orbit_intersection": ".214793",
        "jupiter_tisserand_invariant": "3.618",
        "epoch_osculation": "2457583.5",
        "eccentricity": ".4183523136919004",
        "semi_major_axis": "2.10849280250303",
        "inclination": "5.931761527194499",
        "ascending_node_longitude": "281.41622365",
        "orbital_period": "1118.295587152621",
        "perihelion_distance": "1.226399960173168",
        "perihelion_argument": "23.15264686319922",
        "aphelion_distance": "2.990585644832892",
        "perihelion_time": "2457593.434910826674",
        "mean_anomaly": "356.8017687463927",
        "mean_motion": ".3219184660440483",
        "equinox": "J2000",
        "orbit_class": {
            "orbit_class_type": "AMO",
            "orbit_class_description": "Near-Earth asteroid orbits similar to that of 1221 Amor",
            "orbit_class_range": "1.017 AU < q (perihelion) < 1.3 AU"
        }
    },
    "is_sentry_object": false
}